[{"OBJECT_NAME":"STARLINK-5987","OBJECT_ID":"2023-064H","EPOCH":"2026-03-09T22:27:03.270528","MEAN_MOTION":14.98341095,"ECCENTRICITY":0.00025161,"INCLINATION":70.0018,"RA_OF_ASC_NODE":143.8094,"ARG_OF_PERICENTER":276.238,"MEAN_ANOMALY":83.8493,"EPHEMERIS_TYPE":0,"CLASSIFICATION_TYPE":"U","NORAD_CAT_ID":56455,"ELEMENT_SET_NO":999,"REV_AT_EPOCH":15528,"BSTAR":-6.530288e-6,"MEAN_MOTION_DOT":-1.71e-6,"MEAN_MOTION_DDOT":0},{"OBJECT_NAME":"ATLAS 28E DEB","OBJECT_ID":"1990-031E","EPOCH":"2026-03-09T22:13:15.208608","MEAN_MOTION":14.88062431,"ECCENTRICITY":0.00498313,"INCLINATION":89.8423,"RA_OF_ASC_NODE":265.8289,"ARG_OF_PERICENTER":258.935,"MEAN_ANOMALY":100.6272,"EPHEMERIS_TYPE":0,"CLASSIFICATION_TYPE":"U","NORAD_CAT_ID":20564,"ELEMENT_SET_NO":999,"REV_AT_EPOCH":35731,"BSTAR":0.00023704845,"MEAN_MOTION_DOT":2.245e-5,"MEAN_MOTION_DDOT":0}]
